ONEWEB-0134             
1 47280U 20100Y   24034.82544936 -.00000144  00000+0 -43449-3 0  9995
2 47280  87.9034 162.6414 0001688  93.4647 266.6674 13.12441170151338
ONEWEB-0135             
1 47281U 20100Z   24034.41249805  .00000426  00000+0  11477-2 0  9994
2 47281  87.9040 162.7315 0001642 100.3945 259.7369 13.12442650151301
ONEWEB-0136             
1 47282U 20100AA  24034.81591703  .00000177  00000+0  45545-3 0  9993
2 47282  87.9042 162.6200 0001685  83.5847 276.5473 13.12440506151284
ONEWEB-0137             
1 47283U 20100AB  24034.39184575 -.00000187  00000+0 -55553-3 0  9995
2 47283  87.9033 162.7347 0001396 102.3838 257.7447 13.12442559151133
ONEWEB-0138             
1 47284U 20100AC  24034.82862005 -.00000230  00000+0 -67451-3 0  9994
2 47284  87.9036 162.6610 0001542 101.1214 259.0088 13.12441008151276
ONEWEB-0139             
1 47285U 20100AD  24034.41885354  .00000501  00000+0  13581-2 0  9995
2 47285  87.9043 162.7085 0001633 102.0628 258.0683 13.12441744151291
ONEWEB-0140             
1 47286U 20100AE  24034.82226957 -.00000028  00000+0 -11253-3 0  9990
2 47286  87.9035 162.6372 0001579  96.2384 263.8924 13.12440818151308
ONEWEB-0141             
1 47287U 20100AF  24034.76587611 -.00000443  00000+0 -12664-2 0  9998
2 47287  87.9036 162.6460 0001561 113.8768 246.2524 13.12441761151298
